CCSDS_OMM_VERS = 2.0
CREATION_DATE  = 
ORIGINATOR     = 

OBJECT_NAME    = IDEFIX & ARIANE 42P R/B
OBJECT_ID      = 2002-021B
CENTER_NAME    = EARTH
REF_FRAME      = TEME
TIME_SYSTEM    = UTC
MEAN_ELEMENT_THEORY = SGP/SGP4

EPOCH          = 2026-02-21T06:35:04.583040
MEAN_MOTION    = 14.31013455
ECCENTRICITY   = .00107764
INCLINATION    = 98.5855
RA_OF_ASC_NODE = 351.0785
ARG_OF_PERICENTER = 233.3022
MEAN_ANOMALY   = 126.7171

EPHEMERIS_TYPE = 0
CLASSIFICATION_TYPE = U
NORAD_CAT_ID   = 27422
ELEMENT_SET_NO = 999
REV_AT_EPOCH   = 24167
BSTAR          = .11767804E-3
MEAN_MOTION_DOT = .266E-5
MEAN_MOTION_DDOT = 0

CCSDS_OMM_VERS = 2.0
CREATION_DATE  = 
ORIGINATOR     = 

OBJECT_NAME    = AQUA
OBJECT_ID      = 2002-022A
CENTER_NAME    = EARTH
REF_FRAME      = TEME
TIME_SYSTEM    = UTC
MEAN_ELEMENT_THEORY = SGP/SGP4

EPOCH          = 2026-02-21T06:24:00.992160
MEAN_MOTION    = 14.61932710
ECCENTRICITY   = .00010504
INCLINATION    = 98.4146
RA_OF_ASC_NODE = 19.3365
ARG_OF_PERICENTER = 47.4297
MEAN_ANOMALY   = 56.8693

EPHEMERIS_TYPE = 0
CLASSIFICATION_TYPE = U
NORAD_CAT_ID   = 27424
ELEMENT_SET_NO = 999
REV_AT_EPOCH   = 26633
BSTAR          = .19838335E-3
MEAN_MOTION_DOT = .944E-5
MEAN_MOTION_DDOT = 0

CCSDS_OMM_VERS = 2.0
CREATION_DATE  = 
ORIGINATOR     = 

OBJECT_NAME    = CZ-4B R/B
OBJECT_ID      = 2002-024C
CENTER_NAME    = EARTH
REF_FRAME      = TEME
TIME_SYSTEM    = UTC
MEAN_ELEMENT_THEORY = SGP/SGP4

EPOCH          = 2026-02-21T04:03:01.346976
MEAN_MOTION    = 14.14544541
ECCENTRICITY   = .00510563
INCLINATION    = 98.8879
RA_OF_ASC_NODE = 105.6558
ARG_OF_PERICENTER = 70.5237
MEAN_ANOMALY   = 357.8364

EPHEMERIS_TYPE = 0
CLASSIFICATION_TYPE = U
NORAD_CAT_ID   = 27432
ELEMENT_SET_NO = 999
REV_AT_EPOCH   = 22690
BSTAR          = .33850921E-4
MEAN_MOTION_DOT = .22E-6
MEAN_MOTION_DDOT = 0

CCSDS_OMM_VERS = 2.0
CREATION_DATE  = 
ORIGINATOR     = 

OBJECT_NAME    = MIDORI II (ADEOS-II)
OBJECT_ID      = 2002-056A
CENTER_NAME    = EARTH
REF_FRAME      = TEME
TIME_SYSTEM    = UTC
MEAN_ELEMENT_THEORY = SGP/SGP4

EPOCH          = 2026-02-20T20:41:57.437376
MEAN_MOTION    = 14.29271485
ECCENTRICITY   = .0002076
INCLINATION    = 98.7740
RA_OF_ASC_NODE = 10.2272
ARG_OF_PERICENTER = 66.2064
MEAN_ANOMALY   = 293.9335

EPHEMERIS_TYPE = 0
CLASSIFICATION_TYPE = U
NORAD_CAT_ID   = 27597
ELEMENT_SET_NO = 999
REV_AT_EPOCH   = 20789
BSTAR          = .11689E-3
MEAN_MOTION_DOT = .252E-5
MEAN_MOTION_DDOT = 0

CCSDS_OMM_VERS = 2.0
CREATION_DATE  = 
ORIGINATOR     = 

OBJECT_NAME    = H-2A R/B
OBJECT_ID      = 2002-056E
CENTER_NAME    = EARTH
REF_FRAME      = TEME
TIME_SYSTEM    = UTC
MEAN_ELEMENT_THEORY = SGP/SGP4

EPOCH          = 2026-02-20T22:52:04.138752
MEAN_MOTION    = 14.33748323
ECCENTRICITY   = .0069468
INCLINATION    = 98.3173
RA_OF_ASC_NODE = 12.9589
ARG_OF_PERICENTER = 210.6907
MEAN_ANOMALY   = 181.7080

EPHEMERIS_TYPE = 0
CLASSIFICATION_TYPE = U
NORAD_CAT_ID   = 27601
ELEMENT_SET_NO = 999
REV_AT_EPOCH   = 21171
BSTAR          = .10213E-3
MEAN_MOTION_DOT = .249E-5
MEAN_MOTION_DDOT = 0

CCSDS_OMM_VERS = 2.0
CREATION_DATE  = 
ORIGINATOR     = 

OBJECT_NAME    = CZ-4B R/B
OBJECT_ID      = 2003-049C
CENTER_NAME    = EARTH
REF_FRAME      = TEME
TIME_SYSTEM    = UTC
MEAN_ELEMENT_THEORY = SGP/SGP4

EPOCH          = 2026-02-20T22:45:01.152864
MEAN_MOTION    = 14.55001409
ECCENTRICITY   = .0047034
INCLINATION    = 98.6863
RA_OF_ASC_NODE = 46.1983
ARG_OF_PERICENTER = 283.2464
MEAN_ANOMALY   = 76.3488

EPHEMERIS_TYPE = 0
CLASSIFICATION_TYPE = U
NORAD_CAT_ID   = 28059
ELEMENT_SET_NO = 999
REV_AT_EPOCH   = 18416
BSTAR          = .1011375E-3
MEAN_MOTION_DOT = .39E-5
MEAN_MOTION_DDOT = 0

CCSDS_OMM_VERS = 2.0
CREATION_DATE  = 
ORIGINATOR     = 

OBJECT_NAME    = CZ-2C R/B
OBJECT_ID      = 2004-012C
CENTER_NAME    = EARTH
REF_FRAME      = TEME
TIME_SYSTEM    = UTC
MEAN_ELEMENT_THEORY = SGP/SGP4

EPOCH          = 2026-02-21T03:50:40.910208
MEAN_MOTION    = 15.62474477
ECCENTRICITY   = .00145958
INCLINATION    = 97.7266
RA_OF_ASC_NODE = 115.9102
ARG_OF_PERICENTER = 15.0376
MEAN_ANOMALY   = 345.1312

EPHEMERIS_TYPE = 0
CLASSIFICATION_TYPE = U
NORAD_CAT_ID   = 28222
ELEMENT_SET_NO = 999
REV_AT_EPOCH   = 20169
BSTAR          = .55501347E-3
MEAN_MOTION_DOT = .49646E-3
MEAN_MOTION_DDOT = 0

CCSDS_OMM_VERS = 2.0
CREATION_DATE  = 
ORIGINATOR     = 

OBJECT_NAME    = SL-16 R/B
OBJECT_ID      = 2004-021B
CENTER_NAME    = EARTH
REF_FRAME      = TEME
TIME_SYSTEM    = UTC
MEAN_ELEMENT_THEORY = SGP/SGP4

EPOCH          = 2026-02-20T23:32:38.952096
MEAN_MOTION    = 14.14597417
ECCENTRICITY   = .00032878
INCLINATION    = 70.9989
RA_OF_ASC_NODE = 267.5591
ARG_OF_PERICENTER = 48.5065
MEAN_ANOMALY   = 311.6339

EPHEMERIS_TYPE = 0
CLASSIFICATION_TYPE = U
NORAD_CAT_ID   = 28353
ELEMENT_SET_NO = 999
REV_AT_EPOCH   = 12047
BSTAR          = .15232328E-3
MEAN_MOTION_DOT = .245E-5
MEAN_MOTION_DDOT = 0

CCSDS_OMM_VERS = 2.0
CREATION_DATE  = 
ORIGINATOR     = 

OBJECT_NAME    = CZ-4B R/B
OBJECT_ID      = 2004-035C
CENTER_NAME    = EARTH
REF_FRAME      = TEME
TIME_SYSTEM    = UTC
MEAN_ELEMENT_THEORY = SGP/SGP4

EPOCH          = 2026-02-21T00:33:45.958176
MEAN_MOTION    = 15.28731307
ECCENTRICITY   = .00331126
INCLINATION    = 97.3522
RA_OF_ASC_NODE = 86.4677
ARG_OF_PERICENTER = 30.8170
MEAN_ANOMALY   = 329.5005

EPHEMERIS_TYPE = 0
CLASSIFICATION_TYPE = U
NORAD_CAT_ID   = 28415
ELEMENT_SET_NO = 999
REV_AT_EPOCH   = 17736
BSTAR          = .2690728E-3
MEAN_MOTION_DOT = .7563E-4
MEAN_MOTION_DDOT = 0

CCSDS_OMM_VERS = 2.0
CREATION_DATE  = 
ORIGINATOR     = 

OBJECT_NAME    = CZ-2C R/B
OBJECT_ID      = 2004-046B
CENTER_NAME    = EARTH
REF_FRAME      = TEME
TIME_SYSTEM    = UTC
MEAN_ELEMENT_THEORY = SGP/SGP4

EPOCH          = 2026-02-21T05:13:50.221632
MEAN_MOTION    = 14.26986029
ECCENTRICITY   = .01388669
INCLINATION    = 98.1991
RA_OF_ASC_NODE = 328.2257
ARG_OF_PERICENTER = 203.1589
MEAN_ANOMALY   = 156.3296

EPHEMERIS_TYPE = 0
CLASSIFICATION_TYPE = U
NORAD_CAT_ID   = 28480
ELEMENT_SET_NO = 999
REV_AT_EPOCH   = 10615
BSTAR          = .58628511E-4
MEAN_MOTION_DOT = .116E-5
MEAN_MOTION_DDOT = 0

CCSDS_OMM_VERS = 2.0
CREATION_DATE  = 
ORIGINATOR     = 

OBJECT_NAME    = ARIANE 5 R/B
OBJECT_ID      = 2004-049H
CENTER_NAME    = EARTH
REF_FRAME      = TEME
TIME_SYSTEM    = UTC
MEAN_ELEMENT_THEORY = SGP/SGP4

EPOCH          = 2026-02-20T23:49:13.302048
MEAN_MOTION    = 14.85231143
ECCENTRICITY   = .00850516
INCLINATION    = 98.2598
RA_OF_ASC_NODE = 219.8277
ARG_OF_PERICENTER = 45.8361
MEAN_ANOMALY   = 314.9803

EPHEMERIS_TYPE = 0
CLASSIFICATION_TYPE = U
NORAD_CAT_ID   = 28499
ELEMENT_SET_NO = 999
REV_AT_EPOCH   = 14331
BSTAR          = .87651427E-4
MEAN_MOTION_DOT = .737E-5
MEAN_MOTION_DDOT = 0

CCSDS_OMM_VERS = 2.0
CREATION_DATE  = 
ORIGINATOR     = 

OBJECT_NAME    = CZ-2D R/B
OBJECT_ID      = 2005-024B
CENTER_NAME    = EARTH
REF_FRAME      = TEME
TIME_SYSTEM    = UTC
MEAN_ELEMENT_THEORY = SGP/SGP4

EPOCH          = 2026-02-21T00:35:05.575776
MEAN_MOTION    = 15.58566742
ECCENTRICITY   = .00075614
INCLINATION    = 97.3611
RA_OF_ASC_NODE = 66.5795
ARG_OF_PERICENTER = 86.6025
MEAN_ANOMALY   = 273.6096

EPHEMERIS_TYPE = 0
CLASSIFICATION_TYPE = U
NORAD_CAT_ID   = 28738
ELEMENT_SET_NO = 999
REV_AT_EPOCH   = 13718
BSTAR          = .48747937E-3
MEAN_MOTION_DOT = .3735E-3
MEAN_MOTION_DDOT = 0

